[{"OBJECT_NAME":"FLOCK 4Y-22","OBJECT_ID":"2023-001P","EPOCH":"2025-03-09T19:49:58.190016","MEAN_MOTION":15.4822385,"ECCENTRICITY":0.0005891,"INCLINATION":97.3787,"RA_OF_ASC_NODE":138.7879,"ARG_OF_PERICENTER":285.1666,"MEAN_ANOMALY":74.8933,"EPHEMERIS_TYPE":0,"CLASSIFICATION_TYPE":"U","NORAD_CAT_ID":55022,"ELEMENT_SET_NO":999,"REV_AT_EPOCH":12159,"BSTAR":0.00075833,"MEAN_MOTION_DOT":0.00040016,"MEAN_MOTION_DDOT":0},{"OBJECT_NAME":"FLOCK 4Y-18","OBJECT_ID":"2023-001Q","EPOCH":"2025-03-09T18:35:30.294816","MEAN_MOTION":15.48397412,"ECCENTRICITY":0.0005097,"INCLINATION":97.3842,"RA_OF_ASC_NODE":139.253,"ARG_OF_PERICENTER":286.0832,"MEAN_ANOMALY":73.9857,"EPHEMERIS_TYPE":0,"CLASSIFICATION_TYPE":"U","NORAD_CAT_ID":55023,"ELEMENT_SET_NO":999,"REV_AT_EPOCH":12159,"BSTAR":0.00088242,"MEAN_MOTION_DOT":0.00046895,"MEAN_MOTION_DDOT":0},{"OBJECT_NAME":"FLOCK 4Y-14","OBJECT_ID":"2023-001R","EPOCH":"2025-03-09T17:44:26.707200","MEAN_MOTION":15.4900958,"ECCENTRICITY":0.0005787,"INCLINATION":97.3793,"RA_OF_ASC_NODE":138.9285,"ARG_OF_PERICENTER":294.996,"MEAN_ANOMALY":65.069,"EPHEMERIS_TYPE":0,"CLASSIFICATION_TYPE":"U","NORAD_CAT_ID":55024,"ELEMENT_SET_NO":999,"REV_AT_EPOCH":12158,"BSTAR":0.001016,"MEAN_MOTION_DOT":0.00055239,"MEAN_MOTION_DDOT":0},{"OBJECT_NAME":"FLOCK 4Y-30","OBJECT_ID":"2023-001S","EPOCH":"2025-03-09T15:15:49.637952","MEAN_MOTION":15.51286307,"ECCENTRICITY":0.0006114,"INCLINATION":97.3863,"RA_OF_ASC_NODE":139.5122,"ARG_OF_PERICENTER":288.1338,"MEAN_ANOMALY":71.9248,"EPHEMERIS_TYPE":0,"CLASSIFICATION_TYPE":"U","NORAD_CAT_ID":55025,"ELEMENT_SET_NO":999,"REV_AT_EPOCH":12159,"BSTAR":0.0010559,"MEAN_MOTION_DOT":0.00062267,"MEAN_MOTION_DDOT":0},{"OBJECT_NAME":"FLOCK 4Y-25","OBJECT_ID":"2023-001U","EPOCH":"2025-03-09T17:12:45.272160","MEAN_MOTION":15.4845988,"ECCENTRICITY":0.0005453,"INCLINATION":97.3758,"RA_OF_ASC_NODE":138.565,"ARG_OF_PERICENTER":284.783,"MEAN_ANOMALY":75.2816,"EPHEMERIS_TYPE":0,"CLASSIFICATION_TYPE":"U","NORAD_CAT_ID":55027,"ELEMENT_SET_NO":999,"REV_AT_EPOCH":12158,"BSTAR":0.00089991,"MEAN_MOTION_DOT":0.0004794,"MEAN_MOTION_DDOT":0},{"OBJECT_NAME":"FLOCK 4Y-5","OBJECT_ID":"2023-001V","EPOCH":"2025-03-09T18:31:47.743968","MEAN_MOTION":15.48952634,"ECCENTRICITY":0.0005967,"INCLINATION":97.3834,"RA_OF_ASC_NODE":139.0442,"ARG_OF_PERICENTER":283.4507,"MEAN_ANOMALY":76.6078,"EPHEMERIS_TYPE":0,"CLASSIFICATION_TYPE":"U","NORAD_CAT_ID":55028,"ELEMENT_SET_NO":999,"REV_AT_EPOCH":12159,"BSTAR":0.00090723,"MEAN_MOTION_DOT":0.00049181,"MEAN_MOTION_DDOT":0},{"OBJECT_NAME":"FLOCK 4Y-10","OBJECT_ID":"2023-001W","EPOCH":"2025-03-09T18:29:26.632032","MEAN_MOTION":15.489625,"ECCENTRICITY":0.0005981,"INCLINATION":97.3799,"RA_OF_ASC_NODE":139.1168,"ARG_OF_PERICENTER":284.9813,"MEAN_ANOMALY":75.0776,"EPHEMERIS_TYPE":0,"CLASSIFICATION_TYPE":"U","NORAD_CAT_ID":55029,"ELEMENT_SET_NO":999,"REV_AT_EPOCH":12159,"BSTAR":0.00093421,"MEAN_MOTION_DOT":0.00050674,"MEAN_MOTION_DDOT":0},{"OBJECT_NAME":"FLOCK 4Y-29","OBJECT_ID":"2023-001X","EPOCH":"2025-03-09T17:50:02.027328","MEAN_MOTION":15.58626533,"ECCENTRICITY":0.0005635,"INCLINATION":97.3792,"RA_OF_ASC_NODE":140.8642,"ARG_OF_PERICENTER":294.5569,"MEAN_ANOMALY":65.5099,"EPHEMERIS_TYPE":0,"CLASSIFICATION_TYPE":"U","NORAD_CAT_ID":55030,"ELEMENT_SET_NO":999,"REV_AT_EPOCH":12172,"BSTAR":0.0012626,"MEAN_MOTION_DOT":0.00097789,"MEAN_MOTION_DDOT":0},{"OBJECT_NAME":"FLOCK 4Y-17","OBJECT_ID":"2023-001Y","EPOCH":"2025-03-09T22:05:18.360096","MEAN_MOTION":15.48803654,"ECCENTRICITY":0.0005494,"INCLINATION":97.3811,"RA_OF_ASC_NODE":139.3176,"ARG_OF_PERICENTER":287.783,"MEAN_ANOMALY":72.2821,"EPHEMERIS_TYPE":0,"CLASSIFICATION_TYPE":"U","NORAD_CAT_ID":55031,"ELEMENT_SET_NO":999,"REV_AT_EPOCH":12161,"BSTAR":0.00089483,"MEAN_MOTION_DOT":0.00048245,"MEAN_MOTION_DDOT":0},{"OBJECT_NAME":"FLOCK 4Y-7","OBJECT_ID":"2023-001Z","EPOCH":"2025-03-09T17:04:54.615936","MEAN_MOTION":15.45463004,"ECCENTRICITY":0.0006482,"INCLINATION":97.3809,"RA_OF_ASC_NODE":137.9388,"ARG_OF_PERICENTER":287.833,"MEAN_ANOMALY":72.2212,"EPHEMERIS_TYPE":0,"CLASSIFICATION_TYPE":"U","NORAD_CAT_ID":55032,"ELEMENT_SET_NO":999,"REV_AT_EPOCH":12152,"BSTAR":0.00097758,"MEAN_MOTION_DOT":0.00046981,"MEAN_MOTION_DDOT":0},{"OBJECT_NAME":"FLOCK 4Y-16","OBJECT_ID":"2023-001AH","EPOCH":"2025-03-09T17:37:41.343456","MEAN_MOTION":15.53026612,"ECCENTRICITY":0.0005651,"INCLINATION":97.384,"RA_OF_ASC_NODE":139.8867,"ARG_OF_PERICENTER":310.9542,"MEAN_ANOMALY":49.1222,"EPHEMERIS_TYPE":0,"CLASSIFICATION_TYPE":"U","NORAD_CAT_ID":55040,"ELEMENT_SET_NO":999,"REV_AT_EPOCH":12162,"BSTAR":0.0013547,"MEAN_MOTION_DOT":0.00085281,"MEAN_MOTION_DDOT":0},{"OBJECT_NAME":"FLOCK 4Y-33","OBJECT_ID":"2023-001AK","EPOCH":"2025-03-09T17:19:48.663264","MEAN_MOTION":15.48334905,"ECCENTRICITY":0.000501,"INCLINATION":97.3837,"RA_OF_ASC_NODE":138.7859,"ARG_OF_PERICENTER":287.2755,"MEAN_ANOMALY":72.7947,"EPHEMERIS_TYPE":0,"CLASSIFICATION_TYPE":"U","NORAD_CAT_ID":55042,"ELEMENT_SET_NO":999,"REV_AT_EPOCH":12158,"BSTAR":0.00092577,"MEAN_MOTION_DOT":0.00049109,"MEAN_MOTION_DDOT":0},{"OBJECT_NAME":"FLOCK 4Y-11","OBJECT_ID":"2023-001AL","EPOCH":"2025-03-09T16:41:12.034752","MEAN_MOTION":15.45786041,"ECCENTRICITY":0.0006893,"INCLINATION":97.3865,"RA_OF_ASC_NODE":137.5998,"ARG_OF_PERICENTER":301.9086,"MEAN_ANOMALY":58.1492,"EPHEMERIS_TYPE":0,"CLASSIFICATION_TYPE":"U","NORAD_CAT_ID":55043,"ELEMENT_SET_NO":999,"REV_AT_EPOCH":12147,"BSTAR":0.00098497,"MEAN_MOTION_DOT":0.00047872,"MEAN_MOTION_DDOT":0},{"OBJECT_NAME":"FLOCK 4Y-35","OBJECT_ID":"2023-001BA","EPOCH":"2025-03-09T17:20:44.385216","MEAN_MOTION":15.53540959,"ECCENTRICITY":0.0007228,"INCLINATION":97.3812,"RA_OF_ASC_NODE":139.6731,"ARG_OF_PERICENTER":305.6607,"MEAN_ANOMALY":54.3973,"EPHEMERIS_TYPE":0,"CLASSIFICATION_TYPE":"U","NORAD_CAT_ID":55057,"ELEMENT_SET_NO":999,"REV_AT_EPOCH":12162,"BSTAR":0.0013021,"MEAN_MOTION_DOT":0.00083515,"MEAN_MOTION_DDOT":0},{"OBJECT_NAME":"FLOCK 4Y-20","OBJECT_ID":"2023-001BG","EPOCH":"2025-03-09T17:06:29.078784","MEAN_MOTION":15.4822293,"ECCENTRICITY":0.000686,"INCLINATION":97.3861,"RA_OF_ASC_NODE":139.1594,"ARG_OF_PERICENTER":295.7814,"MEAN_ANOMALY":64.2728,"EPHEMERIS_TYPE":0,"CLASSIFICATION_TYPE":"U","NORAD_CAT_ID":55063,"ELEMENT_SET_NO":999,"REV_AT_EPOCH":12157,"BSTAR":0.0009265,"MEAN_MOTION_DOT":0.00048976,"MEAN_MOTION_DDOT":0},{"OBJECT_NAME":"FLOCK 4Y-12","OBJECT_ID":"2023-001BJ","EPOCH":"2025-03-09T18:32:26.641248","MEAN_MOTION":15.48572003,"ECCENTRICITY":0.0006462,"INCLINATION":97.3826,"RA_OF_ASC_NODE":139.3635,"ARG_OF_PERICENTER":291.7364,"MEAN_ANOMALY":68.3199,"EPHEMERIS_TYPE":0,"CLASSIFICATION_TYPE":"U","NORAD_CAT_ID":55065,"ELEMENT_SET_NO":999,"REV_AT_EPOCH":12159,"BSTAR":0.00093076,"MEAN_MOTION_DOT":0.00049803,"MEAN_MOTION_DDOT":0},{"OBJECT_NAME":"FLOCK 4Y-6","OBJECT_ID":"2023-001BK","EPOCH":"2025-03-09T17:12:04.269312","MEAN_MOTION":15.52576379,"ECCENTRICITY":0.0007764,"INCLINATION":97.3872,"RA_OF_ASC_NODE":139.8489,"ARG_OF_PERICENTER":298.712,"MEAN_ANOMALY":61.3352,"EPHEMERIS_TYPE":0,"CLASSIFICATION_TYPE":"U","NORAD_CAT_ID":55066,"ELEMENT_SET_NO":999,"REV_AT_EPOCH":12161,"BSTAR":0.0012996,"MEAN_MOTION_DOT":0.00080492,"MEAN_MOTION_DDOT":0}]
