FLOCK 4Y-22             
1 55022U 23001P   25068.82636794  .00040016  00000+0  75833-3 0  9995
2 55022  97.3787 138.7879 0005891 285.1666  74.8933 15.48223850121597
FLOCK 4Y-18             
1 55023U 23001Q   25068.77465619  .00046895  00000+0  88242-3 0  9995
2 55023  97.3842 139.2530 0005097 286.0832  73.9857 15.48397412121594
FLOCK 4Y-14             
1 55024U 23001R   25068.73919800  .00055239  00000+0  10160-2 0  9993
2 55024  97.3793 138.9285 0005787 294.9960  65.0690 15.49009580121582
FLOCK 4Y-30             
1 55025U 23001S   25068.63599118  .00062267  00000+0  10559-2 0  9990
2 55025  97.3863 139.5122 0006114 288.1338  71.9248 15.51286307121590
FLOCK 4Y-25             
1 55027U 23001U   25068.71719065  .00047940  00000+0  89991-3 0  9994
2 55027  97.3758 138.5650 0005453 284.7830  75.2816 15.48459880121585
FLOCK 4Y-5              
1 55028U 23001V   25068.77208037  .00049181  00000+0  90723-3 0  9997
2 55028  97.3834 139.0442 0005967 283.4507  76.6078 15.48952634121594
FLOCK 4Y-10             
1 55029U 23001W   25068.77044713  .00050674  00000+0  93421-3 0  9994
2 55029  97.3799 139.1168 0005981 284.9813  75.0776 15.48962500121594
FLOCK 4Y-29             
1 55030U 23001X   25068.74307902  .00097789  00000+0  12626-2 0  9990
2 55030  97.3792 140.8642 0005635 294.5569  65.5099 15.58626533121727
FLOCK 4Y-17             
1 55031U 23001Y   25068.92035139  .00048245  00000+0  89483-3 0  9990
2 55031  97.3811 139.3176 0005494 287.7830  72.2821 15.48803654121619
FLOCK 4Y-7              
1 55032U 23001Z   25068.71174324  .00046981  00000+0  97758-3 0  9997
2 55032  97.3809 137.9388 0006482 287.8330  72.2212 15.45463004121522
FLOCK 4Y-16             
1 55040U 23001AH  25068.73450629  .00085281  00000+0  13547-2 0  9992
2 55040  97.3840 139.8867 0005651 310.9542  49.1222 15.53026612121623
FLOCK 4Y-33             
1 55042U 23001AK  25068.72209101  .00049109  00000+0  92577-3 0  9990
2 55042  97.3837 138.7859 0005010 287.2755  72.7947 15.48334905121583
FLOCK 4Y-11             
1 55043U 23001AL  25068.69527818  .00047872  00000+0  98497-3 0  9997
2 55043  97.3865 137.5998 0006893 301.9086  58.1492 15.45786041121477
FLOCK 4Y-35             
1 55057U 23001BA  25068.72273594  .00083515  00000+0  13021-2 0  9998
2 55057  97.3812 139.6731 0007228 305.6607  54.3973 15.53540959121629
FLOCK 4Y-20             
1 55063U 23001BG  25068.71283656  .00048976  00000+0  92650-3 0  9992
2 55063  97.3861 139.1594 0006860 295.7814  64.2728 15.48222930121574
FLOCK 4Y-12             
1 55065U 23001BJ  25068.77253057  .00049803  00000+0  93076-3 0  9995
2 55065  97.3826 139.3635 0006462 291.7364  68.3199 15.48572003121597
FLOCK 4Y-6              
1 55066U 23001BK  25068.71671608  .00080492  00000+0  12996-2 0  9996
2 55066  97.3872 139.8489 0007764 298.7120  61.3352 15.52576379121616
